[{"OBJECT_NAME":"JILIN-1 GAOFEN 2F","OBJECT_ID":"2021-097A","EPOCH":"2026-03-09T22:15:16.366464","MEAN_MOTION":15.06938169,"ECCENTRICITY":0.00186372,"INCLINATION":97.6538,"RA_OF_ASC_NODE":195.5232,"ARG_OF_PERICENTER":201.1609,"MEAN_ANOMALY":158.885,"EPHEMERIS_TYPE":0,"CLASSIFICATION_TYPE":"U","NORAD_CAT_ID":49338,"ELEMENT_SET_NO":999,"REV_AT_EPOCH":24136,"BSTAR":0.0003789548,"MEAN_MOTION_DOT":5.624e-5,"MEAN_MOTION_DDOT":0},{"OBJECT_NAME":"STARLINK-5705","OBJECT_ID":"2023-015Z","EPOCH":"2026-03-09T01:38:50.425152","MEAN_MOTION":15.02533941,"ECCENTRICITY":0.00013205,"INCLINATION":43.0045,"RA_OF_ASC_NODE":316.9573,"ARG_OF_PERICENTER":270.2047,"MEAN_ANOMALY":89.8644,"EPHEMERIS_TYPE":0,"CLASSIFICATION_TYPE":"U","NORAD_CAT_ID":55472,"ELEMENT_SET_NO":999,"REV_AT_EPOCH":17080,"BSTAR":2.484935e-6,"MEAN_MOTION_DOT":-1.7e-6,"MEAN_MOTION_DDOT":0}]
